[{"OBJECT_NAME":"FORTE","OBJECT_ID":"1997-047A","EPOCH":"2026-03-09T21:41:12.798240","MEAN_MOTION":14.27898785,"ECCENTRICITY":0.00196357,"INCLINATION":69.9517,"RA_OF_ASC_NODE":238.2652,"ARG_OF_PERICENTER":49.0734,"MEAN_ANOMALY":311.2084,"EPHEMERIS_TYPE":0,"CLASSIFICATION_TYPE":"U","NORAD_CAT_ID":24920,"ELEMENT_SET_NO":999,"REV_AT_EPOCH":48451,"BSTAR":0.0001374801,"MEAN_MOTION_DOT":2.83e-6,"MEAN_MOTION_DDOT":0},{"OBJECT_NAME":"CZ-4 DEB","OBJECT_ID":"1990-081CP","EPOCH":"2026-03-09T22:31:18.401088","MEAN_MOTION":14.20222989,"ECCENTRICITY":0.00213878,"INCLINATION":98.6986,"RA_OF_ASC_NODE":58.5711,"ARG_OF_PERICENTER":337.5615,"MEAN_ANOMALY":22.4624,"EPHEMERIS_TYPE":0,"CLASSIFICATION_TYPE":"U","NORAD_CAT_ID":23258,"ELEMENT_SET_NO":999,"REV_AT_EPOCH":74554,"BSTAR":0.00037432039,"MEAN_MOTION_DOT":7.58e-6,"MEAN_MOTION_DDOT":0}]
